ONEWEB-0275             
1 48993U 21060AC  24351.44334999 -.00000041  00000+0 -14199-3 0  9995
2 48993  87.9085 337.9062 0001675  83.3204 276.8118 13.16594972168770
ONEWEB-0276             
1 48994U 21060AD  24350.94461922  .00000031  00000+0  47261-4 0  9991
2 48994  87.9081 338.0018 0001548  86.1905 273.9403 13.16594125168739
ONEWEB-0277             
1 48995U 21060AE  24350.72929272  .00000079  00000+0  17189-3 0  9992
2 48995  87.9082 338.0822 0001434  76.3267 283.8024 13.16594825167397
ONEWEB-0278             
1 48996U 21060AF  24351.70775479  .00000013  00000+0  35694-6 0  9992
2 48996  87.9083 337.8467 0001761  95.3290 264.8042 13.16593855168966
ONEWEB-0279             
1 48997U 21060AG  24351.71566878  .00000013  00000+0 -36928-6 0  9997
2 48997  87.9081 337.8420 0001551  75.9090 284.2213 13.16594297168881
ONEWEB-0280             
1 48998U 21060AH  24351.42673456  .00000078  00000+0  16961-3 0  9999
2 48998  87.9082 337.9035 0001381  90.4843 269.6446 13.16595121168775
ONEWEB-0281             
1 48999U 21060AJ  24351.43226901  .00000088  00000+0  19538-3 0  9994
2 48999  87.9076 337.9022 0001871  82.8813 277.2531 13.16595309168869
ONEWEB-0282             
1 49000U 21060AK  24350.70237940 -.00000012  00000+0 -65910-4 0  9997
2 49000  87.9081 338.0639 0001485  85.8011 274.3290 13.16593530167435
